LIZZIESAT-1 (LS-1)      
1 59132U 24043AL  26068.89230471  .00005784  00000+0  22329-3 0  9993
2 59132  97.5461 203.4772 0009923 229.9925 130.0443 15.26635711111780
STARLINK-35589          
1 66426U 25259E   26068.57538554  .00024330  00000+0  89058-3 0  9995
2 66426  42.9999 275.0108 0001843 261.7628  98.3015 15.27585849 19470
